{"type": "FeatureCollection", "features": [ {"type": "Feature", "properties": {"norad_id": 34682, "name": "COSMOS 2251 DEB", "group": "cosmos-2251-debris", "lat": 42.7768838457175, "lon": -106.01982810359875, "alt_km": 692.3519575636374, "timestamp": "2025-12-09T09:46:48.040608+00:00", "meta": {"OBJECT_NAME": "COSMOS 2251 DEB", "OBJECT_ID": "1993-036YC", "EPOCH": "2025-12-08T13:28:57.741024", "MEAN_MOTION": 14.58847249, "ECCENTRICITY": 0.0018543, "INCLINATION": 74.04, "RA_OF_ASC_NODE": 90.9444, "ARG_OF_PERICENTER": 224.1225, "MEAN_ANOMALY": 151.2779, "EPHEMERIS_TYPE": 0, "CLASSIFICATION_TYPE": "U", "NORAD_CAT_ID": 34682, "ELEMENT_SET_NO": 999, "REV_AT_EPOCH": 88625, "BSTAR": 0.0013547, "MEAN_MOTION_DOT": 6.331e-05, "MEAN_MOTION_DDOT": 0}, "tle": {"line1": "1 34682U 93036YC  25342.56177941  .00006331  00000+0  13547-2 0  9994", "line2": "2 34682  74.0400  90.9444 0018543 224.1225 151.2779 14.58847249886252"}}, "geometry": {"type": "Point", "coordinates": [-106.01982810359875, 42.7768838457175]}}, {"type": "Feature", "properties": {"norad_id": 34683, "name": "COSMOS 2251 DEB", "group": "cosmos-2251-debris", "lat": -39.130037524469884, "lon": -67.85305335377866, "alt_km": 672.1237654956194, "timestamp": "2025-12-09T09:46:48.040618+00:00", "meta": {"OBJECT_NAME": "COSMOS 2251 DEB", "OBJECT_ID": "1993-036YD", "EPOCH": "2025-12-08T18:42:51.522336", "MEAN_MOTION": 14.6439747, "ECCENTRICITY": 0.00185343, "INCLINATION": 74.0292, "RA_OF_ASC_NODE": 99.8802, "ARG_OF_PERICENTER": 214.7694, "MEAN_ANOMALY": 298.1621, "EPHEMERIS_TYPE": 0, "CLASSIFICATION_TYPE": "U", "NORAD_CAT_ID": 34683, "ELEMENT_SET_NO": 999, "REV_AT_EPOCH": 88290, "BSTAR": 0.0021428869, "MEAN_MOTION_DOT": 0.00011347, "MEAN_MOTION_DDOT": 0}, "tle": {"line1": "1 34683U 93036YD  25342.77976299  .00011347  00000+0  21429-2 0  9992", "line2": "2 34683  74.0292  99.8802 0018534 214.7694 298.1621 14.64397470882901"}}, "geometry": {"type": "Point", "coordinates": [-67.85305335377866, -39.130037524469884]}}, {"type": "Feature", "properties": {"norad_id": 34685, "name": "COSMOS 2251 DEB", "group": "cosmos-2251-debris", "lat": 73.25508588418803, "lon": -97.03258417127068, "alt_km": 703.7656434069386, "timestamp": "2025-12-09T09:46:48.040629+00:00", "meta": {"OBJECT_NAME": "COSMOS 2251 DEB", "OBJECT_ID": "1993-036YF", "EPOCH": "2025-12-09T04:55:35.181120", "MEAN_MOTION": 14.57453768, "ECCENTRICITY": 0.0014312, "INCLINATION": 74.029, "RA_OF_ASC_NODE": 155.5021, "ARG_OF_PERICENTER": 259.5075, "MEAN_ANOMALY": 214.9506, "EPHEMERIS_TYPE": 0, "CLASSIFICATION_TYPE": "U", "NORAD_CAT_ID": 34685, "ELEMENT_SET_NO": 999, "REV_AT_EPOCH": 88480, "BSTAR": 0.0012726, "MEAN_MOTION_DOT": 5.762e-05, "MEAN_MOTION_DDOT": 0}, "tle": {"line1": "1 34685U 93036YF  25343.20526830  .00005762  00000+0  12726-2 0  9999", "line2": "2 34685  74.0290 155.5021 0014312 259.5075 214.9506 14.57453768884808"}}, "geometry": {"type": "Point", "coordinates": [-97.03258417127068, 73.25508588418803]}}, {"type": "Feature", "properties": {"norad_id": 34689, "name": "COSMOS 2251 DEB", "group": "cosmos-2251-debris", "lat": -29.564113561947675, "lon": 58.4996109625664, "alt_km": 874.9577025252893, "timestamp": "2025-12-09T09:46:48.040639+00:00", "meta": {"OBJECT_NAME": "COSMOS 2251 DEB", "OBJECT_ID": "1993-036YK", "EPOCH": "2025-12-08T17:38:51.976320", "MEAN_MOTION": 14.0436155, "ECCENTRICITY": 0.02286553, "INCLINATION": 74.0928, "RA_OF_ASC_NODE": 230.3585, "ARG_OF_PERICENTER": 300.2116, "MEAN_ANOMALY": 116.1609, "EPHEMERIS_TYPE": 0, "CLASSIFICATION_TYPE": "U", "NORAD_CAT_ID": 34689, "ELEMENT_SET_NO": 999, "REV_AT_EPOCH": 84285, "BSTAR": 0.0057567804, "MEAN_MOTION_DOT": 0.00011559, "MEAN_MOTION_DDOT": 0}, "tle": {"line1": "1 34689U 93036YK  25342.73532380  .00011559  00000+0  57568-2 0  9991", "line2": "2 34689  74.0928 230.3585 0228655 300.2116 116.1609 14.04361550842859"}}, "geometry": {"type": "Point", "coordinates": [58.4996109625664, -29.564113561947675]}}, {"type": "Feature", "properties": {"norad_id": 34721, "name": "COSMOS 2251 DEB", "group": "cosmos-2251-debris", "lat": -22.60141100580624, "lon": -34.86287768301548, "alt_km": 837.8596607993459, "timestamp": "2025-12-09T09:46:48.040670+00:00", "meta": {"OBJECT_NAME": "COSMOS 2251 DEB", "OBJECT_ID": "1993-036YP", "EPOCH": "2025-12-07T23:39:26.180352", "MEAN_MOTION": 13.96814529, "ECCENTRICITY": 0.02238624, "INCLINATION": 73.9236, "RA_OF_ASC_NODE": 334.4971, "ARG_OF_PERICENTER": 274.3054, "MEAN_ANOMALY": 113.1719, "EPHEMERIS_TYPE": 0, "CLASSIFICATION_TYPE": "U", "NORAD_CAT_ID": 34721, "ELEMENT_SET_NO": 999, "REV_AT_EPOCH": 85083, "BSTAR": 0.0021154333, "MEAN_MOTION_DOT": 3.608e-05, "MEAN_MOTION_DDOT": 0}, "tle": {"line1": "1 34721U 93036YP  25341.98571968  .00003608  00000+0  21154-2 0  9997", "line2": "2 34721  73.9236 334.4971 0223862 274.3054 113.1719 13.96814529850833"}}, "geometry": {"type": "Point", "coordinates": [-34.86287768301548, -22.60141100580624]}}, {"type": "Feature", "properties": {"norad_id": 34722, "name": "COSMOS 2251 DEB", "group": "cosmos-2251-debris", "lat": 19.881569497232142, "lon": -11.982467446823, "alt_km": 897.4585103141035, "timestamp": "2025-12-09T09:46:48.040681+00:00", "meta": {"OBJECT_NAME": "COSMOS 2251 DEB", "OBJECT_ID": "1993-036YQ", "EPOCH": "2025-12-08T23:37:28.755840", "MEAN_MOTION": 14.11915137, "ECCENTRICITY": 0.01672795, "INCLINATION": 73.8728, "RA_OF_ASC_NODE": 342.7659, "ARG_OF_PERICENTER": 268.966, "MEAN_ANOMALY": 120.1524, "EPHEMERIS_TYPE": 0, "CLASSIFICATION_TYPE": "U", "NORAD_CAT_ID": 34722, "ELEMENT_SET_NO": 999, "REV_AT_EPOCH": 86192, "BSTAR": 0.0011607543, "MEAN_MOTION_DOT": 2.394e-05, "MEAN_MOTION_DDOT": 0}, "tle": {"line1": "1 34722U 93036YQ  25342.98436060  .00002394  00000+0  11608-2 0  9996", "line2": "2 34722  73.8728 342.7659 0167279 268.9660 120.1524 14.11915137861924"}}, "geometry": {"type": "Point", "coordinates": [-11.982467446823, 19.881569497232142]}}, {"type": "Feature", "properties": {"norad_id": 34726, "name": "COSMOS 2251 DEB", "group": "cosmos-2251-debris", "lat": -17.26788499639272, "lon": 177.78833414547927, "alt_km": 681.5756750928176, "timestamp": "2025-12-09T09:46:48.040692+00:00", "meta": {"OBJECT_NAME": "COSMOS 2251 DEB", "OBJECT_ID": "1993-036YU", "EPOCH": "2025-12-08T19:43:06.131136", "MEAN_MOTION": 14.5945803, "ECCENTRICITY": 0.00421849, "INCLINATION": 74.0291, "RA_OF_ASC_NODE": 353.798, "ARG_OF_PERICENTER": 145.8605, "MEAN_ANOMALY": 214.5287, "EPHEMERIS_TYPE": 0, "CLASSIFICATION_TYPE": "U", "NORAD_CAT_ID": 34726, "ELEMENT_SET_NO": 999, "REV_AT_EPOCH": 88445, "BSTAR": 0.00052044384, "MEAN_MOTION_DOT": 2.469e-05, "MEAN_MOTION_DDOT": 0}, "tle": {"line1": "1 34726U 93036YU  25342.82159874  .00002469  00000+0  52044-3 0  9991", "line2": "2 34726  74.0291 353.7980 0042184 145.8605 214.5287 14.59458030884457"}}, "geometry": {"type": "Point", "coordinates": [177.78833414547927, -17.26788499639272]}}, {"type": "Feature", "properties": {"norad_id": 34728, "name": "COSMOS 2251 DEB", "group": "cosmos-2251-debris", "lat": -57.22349870576505, "lon": -128.1829365537287, "alt_km": 678.6291485635775, "timestamp": "2025-12-09T09:46:48.040703+00:00", "meta": {"OBJECT_NAME": "COSMOS 2251 DEB", "OBJECT_ID": "1993-036YW", "EPOCH": "2025-12-08T04:40:21.187488", "MEAN_MOTION": 14.70775682, "ECCENTRICITY": 0.00410887, "INCLINATION": 74.018, "RA_OF_ASC_NODE": 260.6035, "ARG_OF_PERICENTER": 59.4394, "MEAN_ANOMALY": 301.0821, "EPHEMERIS_TYPE": 0, "CLASSIFICATION_TYPE": "U", "NORAD_CAT_ID": 34728, "ELEMENT_SET_NO": 999, "REV_AT_EPOCH": 88733, "BSTAR": 0.0011226976, "MEAN_MOTION_DOT": 6.918e-05, "MEAN_MOTION_DDOT": 0}, "tle": {"line1": "1 34728U 93036YW  25342.19468967  .00006918  00000+0  11227-2 0  9999", "line2": "2 34728  74.0180 260.6035 0041088  59.4394 301.0821 14.70775682887334"}}, "geometry": {"type": "Point", "coordinates": [-128.1829365537287, -57.22349870576505]}}, {"type": "Feature", "properties": {"norad_id": 34729, "name": "COSMOS 2251 DEB", "group": "cosmos-2251-debris", "lat": 8.990832779738557, "lon": -177.56899808711134, "alt_km": 616.4568366980193, "timestamp": "2025-12-09T09:46:48.040713+00:00", "meta": {"OBJECT_NAME": "COSMOS 2251 DEB", "OBJECT_ID": "1993-036YX", "EPOCH": "2025-12-08T12:38:33.716832", "MEAN_MOTION": 14.82610152, "ECCENTRICITY": 0.00118663, "INCLINATION": 74.018, "RA_OF_ASC_NODE": 6.7731, "ARG_OF_PERICENTER": 128.2562, "MEAN_ANOMALY": 23.3369, "EPHEMERIS_TYPE": 0, "CLASSIFICATION_TYPE": "U", "NORAD_CAT_ID": 34729, "ELEMENT_SET_NO": 999, "REV_AT_EPOCH": 88395, "BSTAR": 0.0023481946, "MEAN_MOTION_DOT": 0.00018951, "MEAN_MOTION_DDOT": 0}, "tle": {"line1": "1 34729U 93036YX  25342.52677913  .00018951  00000+0  23482-2 0  9996", "line2": "2 34729  74.0180   6.7731 0011866 128.2562  23.3369 14.82610152883958"}}, "geometry": {"type": "Point", "coordinates": [-177.56899808711134, 8.990832779738557]}}, {"type": "Feature", "properties": {"norad_id": 34732, "name": "COSMOS 2251 DEB", "group": "cosmos-2251-debris", "lat": 70.8213363122825, "lon": -135.92342694801417, "alt_km": 752.2575462809091, "timestamp": "2025-12-09T09:46:48.040724+00:00", "meta": {"OBJECT_NAME": "COSMOS 2251 DEB", "OBJECT_ID": "1993-036ZA", "EPOCH": "2025-12-08T19:05:29.361408", "MEAN_MOTION": 14.47294366, "ECCENTRICITY": 0.0040456, "INCLINATION": 74.045, "RA_OF_ASC_NODE": 100.5559, "ARG_OF_PERICENTER": 252.3107, "MEAN_ANOMALY": 261.1721, "EPHEMERIS_TYPE": 0, "CLASSIFICATION_TYPE": "U", "NORAD_CAT_ID": 34732, "ELEMENT_SET_NO": 999, "REV_AT_EPOCH": 88086, "BSTAR": 0.00031405215, "MEAN_MOTION_DOT": 1.133e-05, "MEAN_MOTION_DDOT": 0}, "tle": {"line1": "1 34732U 93036ZA  25342.79547872  .00001133  00000+0  31405-3 0  9998", "line2": "2 34732  74.0450 100.5559 0040456 252.3107 261.1721 14.47294366880861"}}, "geometry": {"type": "Point", "coordinates": [-135.92342694801417, 70.8213363122825]}}]}